stk.v.4.3 

BEGIN Ephemeris 
 
NumberOfEphemerisPoints		146 
ScenarioEpoch	    3 Sep 2020 19:51:25.660497845 
InterpolationMethod		Lagrange 
InterpolationOrder		5 
CentralBody				Earth 
CoordinateSystem			TEME 
CoordinateSystemEpoch	  3 Sep 2020 19:51:25.660497845 
DistanceUnit			Kilometers 
 
EphemerisTimePosVel 
 
       0.00000000   -5187.85751393    4825.81422902       0.04141119 -0.219264876 -0.437737752  7.438293479
 END Ephemeris 
